
# G02 (GNSS)
1 28474U 04045A   26192.73464933 -.00000085  00000+0  00000+0 0  9999
2 28474  55.1204 323.9078 0170119 316.9752  44.7539  2.00556859158925

# G05 (GNSS)
1 35752U 09043A   26192.27430421 -.00000054  00000+0  00000+0 0  9999
2 35752  56.2254  26.5066 0053752  84.2123  73.5929  2.00552906123847

# G07 (GNSS)
1 32711U 08012A   26192.56529352  .00000029  00000+0  00000+0 0  9991
2 32711  54.4998 148.9509 0211647 248.1155 109.5888  2.00572989134243

# G12 (GNSS)
1 29601U 06052A   26192.35072327  .00000105  00000+0  00000+0 0  9994
2 29601  54.9326 213.0483 0084794  90.9918 270.0434  2.00559410143899

# G15 (GNSS)
1 32260U 07047A   26192.15767303 -.00000043  00000+0  00000+0 0  9999
2 32260  54.1126  79.0777 0167652  87.8982 274.0650  2.00554051137298

# G16 (GNSS)
1 27663U 03005A   26192.59094097  .00000103  00000+0  00000+0 0  9997
2 27663  54.8794 213.9992 0148215  53.1590 347.1345  2.00559188171804

# G17 (GNSS)
1 28874U 05038A   26192.85809866  .00000000  00000+0  00000+0 0  9993
2 28874  54.8582 272.1809 0128195 296.3692 119.0147  2.00563885152339

# G19 (GNSS)
1 28190U 04009A   26192.32612622 -.00000008  00000+0  00000+0 0  9994
2 28190  54.8097 274.7111 0117050 174.1412 187.5704  2.00553818163433

# G22 (GNSS)
1 26407U 00040A   26192.68408591  .00000102  00000+0  00000+0 0  9995
2 26407  54.8489 214.1892 0120563 302.6973  28.6671  2.00557794190439

# G25 (GNSS)
1 36585U 10022A   26192.37366262  .00000105  00000+0  00000+0 0  9991
2 36585  54.2688 207.5877 0126648  66.1529 283.0774  2.00563530118076

# G29 (GNSS)
1 32384U 07062A   26192.44748571 -.00000003  00000+0  00000+0 0  9997
2 32384  55.0124 273.1765 0036030 167.2486 169.8682  2.00561362135998

# G31 (GNSS)
1 29486U 06042A   26192.66875324  .00000030  00000+0  00000+0 0  9993
2 29486  54.7126 150.3670 0107075  55.0446 122.5056  2.00568391144882

# C06 (GNSS)
1 36828U 10036A   26192.85182554 -.00000089  00000+0  00000+0 0  9991
2 36828  54.3064 162.7376 0058925 225.2565 315.6066  1.00264608 58343

# C04 (GNSS)
1 37210U 10057A   26192.59664398 -.00000112  00000+0  00000+0 0  9999
2 37210   3.7036  68.7942 0005567 185.0953  50.3442  1.00270060 57538

# C07 (GNSS)
1 37256U 10068A   26192.70453418 -.00000193  00000+0  00000+0 0  9992
2 37256  47.5028 271.5269 0057159 213.6994 166.3305  1.00274707 57042

# R01 (GNSS)
1 36111U 09070A   26190.63071153 -.00000025  00000+0  00000+0 0  9998
2 36111  65.0240  70.2070 0003794 337.6713 216.6373  2.13103839128908

# R03 (GNSS)
1 37867U 11064A   26192.65817440 -.00000019  00000+0  00000+0 0  9997
2 37867  65.2832  72.0458 0022227 236.3365 341.7022  2.13103841114286

# R06 (GNSS)
1 36112U 09070B   26192.32266847 -.00000020  00000+0  00000+0 0  9998
2 36112  65.0106  69.9929 0003927 122.6877  56.8251  2.13101234128949

# R07 (GNSS)
1 37868U 11064B   26192.37336347 -.00000020  00000+0  00000+0 0  9991
2 37868  65.2897  72.1351 0019225 237.1086 302.7003  2.13103049114279

# R08 (GNSS)
1 37869U 11064C   26192.43169796 -.00000020  00000+0  00000+0 0  9991
2 37869  65.2964  72.1551 0024878 251.3420 288.2380  2.13101872114286

# R10 (GNSS)
1 32395U 07065C   26192.29089645  .00000110  00000+0  00000+0 0  9993
2 32395  64.3285 191.1750 0017323 353.6446   8.2320  2.13100061144247

# R13 (GNSS)
1 32393U 07065A   26192.61775593  .00000105  00000+0  00000+0 0  9995
2 32393  64.3201 191.0916 0001261 325.8599 154.5630  2.13101327144290

# R20 (GNSS)
1 32276U 07052B   26192.84894738 -.00000064  00000+0  00000+0 0  9994
2 32276  65.5779 315.2327 0007434 323.1578  28.6989  2.13103101145601

# R23 (GNSS)
1 36402U 10007C   26192.63988207 -.00000063  00000+0  00000+0 0  9994
2 36402  65.4052 313.6400 0001813 140.7417 284.0802  2.13101671127256

# R25 (GNSS)
1 32275U 07052A   26191.84776337 -.00000062  00000+0  00000+0 0  9994
2 32275  65.5625 315.1381 0003392 203.0239 156.9646  2.13104163145567
