OBJECT_NAME,OBJECT_ID,EPOCH,MEAN_MOTION,ECCENTRICITY,INCLINATION,RA_OF_ASC_NODE,ARG_OF_PERICENTER,MEAN_ANOMALY,EPHEMERIS_TYPE,CLASSIFICATION_TYPE,NORAD_CAT_ID,ELEMENT_SET_NO,REV_AT_EPOCH,BSTAR,MEAN_MOTION_DOT,MEAN_MOTION_DDOT
GPS BIIR-5  (PRN 22),2000-040A,2026-07-11T16:25:05.022624,2.00557794,.01205638,54.8489,214.1892,302.6973,28.6671,0,U,26407,999,19043,0,.102E-5,0
GPS BIIR-8  (PRN 16),2003-005A,2026-07-11T14:10:57.299808,2.00559188,.01482151,54.8794,213.9992,53.1590,347.1345,0,U,27663,999,17180,0,.103E-5,0
GPS BIIR-11 (PRN 19),2004-009A,2026-07-11T07:49:37.305408,2.00553818,.01170504,54.8097,274.7111,174.1412,187.5704,0,U,28190,999,16343,0,-.8E-7,0
GPS BIIR-13 (PRN 02),2004-045A,2026-07-11T17:37:53.702112,2.00556859,.0170119,55.1204,323.9078,316.9752,44.7539,0,U,28474,999,15892,0,-.85E-6,0
GPS BIIRM-1 (PRN 17),2005-038A,2026-07-11T20:35:39.724224,2.00563885,.0128195,54.8582,272.1809,296.3692,119.0147,0,U,28874,999,15233,0,0,0
GPS BIIRM-2 (PRN 31),2006-042A,2026-07-11T16:03:00.279936,2.00568391,.01070755,54.7126,150.3670,55.0446,122.5056,0,U,29486,999,14488,0,.3E-6,0
GPS BIIRM-3 (PRN 12),2006-052A,2026-07-11T08:25:02.490528,2.00559410,.00847946,54.9326,213.0483,90.9918,270.0434,0,U,29601,999,14389,0,.105E-5,0
GPS BIIRM-4 (PRN 15),2007-047A,2026-07-11T03:47:02.949792,2.00554051,.01676524,54.1126,79.0777,87.8982,274.0650,0,U,32260,999,13729,0,-.43E-6,0
COSMOS 2433 (720),2007-052A,2026-07-10T20:20:46.755168,2.13104163,.00033929,65.5625,315.1381,203.0239,156.9646,0,U,32275,999,14556,0,-.62E-6,0
COSMOS 2432 (719),2007-052B,2026-07-11T20:22:29.053632,2.13103101,.0007434,65.5779,315.2327,323.1578,28.6989,0,U,32276,999,14560,0,-.64E-6,0
GPS BIIRM-5 (PRN 29),2007-062A,2026-07-11T10:44:22.765344,2.00561362,.00360308,55.0124,273.1765,167.2486,169.8682,0,U,32384,999,13599,0,-.3E-7,0
COSMOS 2434 (721),2007-065A,2026-07-11T14:49:34.112352,2.13101327,.0001261,64.3201,191.0916,325.8599,154.5630,0,U,32393,999,14429,0,.105E-5,0
COSMOS 2436 (723),2007-065C,2026-07-11T06:58:53.453280,2.13100061,.00173239,64.3285,191.1750,353.6446,8.2320,0,U,32395,999,14424,0,.11E-5,0
GPS BIIRM-6 (PRN 07),2008-012A,2026-07-11T13:34:01.360128,2.00572989,.0211647,54.4998,148.9509,248.1155,109.5888,0,U,32711,999,13424,0,.29E-6,0
GPS BIIRM-8 (PRN 05),2009-043A,2026-07-11T06:34:59.883744,2.00552906,.00537521,56.2254,26.5066,84.2123,73.5929,0,U,35752,999,12384,0,-.54E-6,0
COSMOS 2456 (730),2009-070A,2026-07-09T15:08:13.476192,2.13103839,.0003794,65.0240,70.2070,337.6713,216.6373,0,U,36111,999,12890,0,-.25E-6,0
COSMOS 2457 (733),2009-070B,2026-07-11T07:44:38.555808,2.13101234,.00039275,65.0106,69.9929,122.6877,56.8251,0,U,36112,999,12894,0,-.2E-6,0
COSMOS 2460 (732),2010-007C,2026-07-11T15:21:25.810848,2.13101671,.0001813,65.4052,313.6400,140.7417,284.0802,0,U,36402,999,12725,0,-.63E-6,0
GPS BIIF-1  (PRN 25),2010-022A,2026-07-11T08:58:04.450368,2.00563530,.0126648,54.2688,207.5877,66.1529,283.0774,0,U,36585,999,11807,0,.105E-5,0
BEIDOU-2 IGSO-1 (C06),2010-036A,2026-07-11T20:26:37.726656,1.00264608,.0058925,54.3064,162.7376,225.2565,315.6066,0,U,36828,999,5834,0,-.89E-6,0
BEIDOU-2 G4 (C04),2010-057A,2026-07-11T14:19:10.039872,1.00270060,.0005567,3.7036,68.7942,185.0953,50.3442,0,U,37210,999,5753,0,-.112E-5,0
BEIDOU-2 IGSO-2 (C07),2010-068A,2026-07-11T16:54:31.753152,1.00274707,.0057159,47.5028,271.5269,213.6994,166.3305,0,U,37256,999,5704,0,-.193E-5,0
COSMOS 2476 (744),2011-064A,2026-07-11T15:47:46.268160,2.13103841,.0022227,65.2832,72.0458,236.3365,341.7022,0,U,37867,999,11428,0,-.19E-6,0
COSMOS 2477 (745),2011-064B,2026-07-11T08:57:38.603808,2.13103049,.0019225,65.2897,72.1351,237.1086,302.7003,0,U,37868,999,11427,0,-.2E-6,0
COSMOS 2475 (743),2011-064C,2026-07-11T10:21:38.703744,2.13101872,.00248784,65.2964,72.1551,251.3420,288.2380,0,U,37869,999,11428,0,-.2E-6,0
